{"type": "FeatureCollection", "features": [{"type": "Feature", "geometry": {"type": "Point", "coordinates": [151.4, 27.6]}, "properties": {"storm_id": "WP042026", "storm_name": "Sinlaku", "ri_probability": 0.0, "category": "Tropical Storm", "vmax_kt": 50.0, "mslp_hpa": null, "basin": "WP"}}, {"type": "Feature", "geometry": {"type": "Point", "coordinates": [149.5, 26.5]}, "properties": {"storm_id": "WP042026", "storm_name": "Sinlaku", "ri_probability": 0.0, "category": "Unknown", "vmax_kt": null, "mslp_hpa": null, "basin": "WP"}}]}
