{"type": "FeatureCollection", "features": [{"type": "Feature", "geometry": {"type": "Point", "coordinates": [-96.4313, 41.635]}, "properties": {"storm_id": "235726", "probability": 0.3313, "risk_band": "high", "mucape": 571.0, "srh01": 291.0, "maxllaz": 0.006}}, {"type": "Feature", "geometry": {"type": "Point", "coordinates": [-96.553, 41.325]}, "properties": {"storm_id": "235878", "probability": 0.2626, "risk_band": "moderate", "mucape": 586.0, "srh01": 265.0, "maxllaz": 0.005}}, {"type": "Feature", "geometry": {"type": "Point", "coordinates": [-122.7422, 39.8489]}, "properties": {"storm_id": "235895", "probability": 0.2214, "risk_band": "moderate", "mucape": 760.0, "srh01": 55.0, "maxllaz": 0.008}}, {"type": "Feature", "geometry": {"type": "Point", "coordinates": [-95.0237, 41.758]}, "properties": {"storm_id": "235974", "probability": 0.2214, "risk_band": "moderate", "mucape": 245.0, "srh01": 318.0, "maxllaz": 0.002}}, {"type": "Feature", "geometry": {"type": "Point", "coordinates": [-97.7755, 39.8205]}, "properties": {"storm_id": "235985", "probability": 0.2214, "risk_band": "moderate", "mucape": 1356.0, "srh01": 45.0, "maxllaz": 0.008}}, {"type": "Feature", "geometry": {"type": "Point", "coordinates": [-71.4663, 48.2475]}, "properties": {"storm_id": "236013", "probability": 0.2214, "risk_band": "moderate", "mucape": 4.0, "srh01": 419.0, "maxllaz": 0.002}}, {"type": "Feature", "geometry": {"type": "Point", "coordinates": [-96.0408, 38.8838]}, "properties": {"storm_id": "235880", "probability": 0.1951, "risk_band": "moderate", "mucape": 1121.0, "srh01": 108.0, "maxllaz": 0.007}}, {"type": "Feature", "geometry": {"type": "Point", "coordinates": [-95.4856, 41.3231]}, "properties": {"storm_id": "235531", "probability": 0.1927, "risk_band": "moderate", "mucape": 144.0, "srh01": 265.0, "maxllaz": 0.003}}, {"type": "Feature", "geometry": {"type": "Point", "coordinates": [-93.7111, 41.4867]}, "properties": {"storm_id": "235915", "probability": 0.192, "risk_band": "moderate", "mucape": 389.0, "srh01": 264.0, "maxllaz": 0.003}}, {"type": "Feature", "geometry": {"type": "Point", "coordinates": [-102.0494, 35.6213]}, "properties": {"storm_id": "235670", "probability": 0.1889, "risk_band": "moderate", "mucape": 683.0, "srh01": 11.0, "maxllaz": 0.007}}, {"type": "Feature", "geometry": {"type": "Point", "coordinates": [-98.0094, 39.9869]}, "properties": {"storm_id": "235938", "probability": 0.1889, "risk_band": "moderate", "mucape": 992.0, "srh01": 32.0, "maxllaz": 0.007}}, {"type": "Feature", "geometry": {"type": "Point", "coordinates": [-96.0073, 41.3232]}, "properties": {"storm_id": "235398", "probability": 0.174, "risk_band": "moderate", "mucape": 125.0, "srh01": 240.0, "maxllaz": 0.003}}, {"type": "Feature", "geometry": {"type": "Point", "coordinates": [-98.3167, 29.34]}, "properties": {"storm_id": "235928", "probability": 0.1601, "risk_band": "moderate", "mucape": 1035.0, "srh01": 16.0, "maxllaz": 0.006}}, {"type": "Feature", "geometry": {"type": "Point", "coordinates": [-98.281, 30.824]}, "properties": {"storm_id": "235941", "probability": 0.1601, "risk_band": "moderate", "mucape": 1414.0, "srh01": 4.0, "maxllaz": 0.006}}, {"type": "Feature", "geometry": {"type": "Point", "coordinates": [-123.061, 42.243]}, "properties": {"storm_id": "236007", "probability": 0.1601, "risk_band": "moderate", "mucape": 744.0, "srh01": 50.0, "maxllaz": 0.006}}, {"type": "Feature", "geometry": {"type": "Point", "coordinates": [-92.851, 41.633]}, "properties": {"storm_id": "235951", "probability": 0.1516, "risk_band": "moderate", "mucape": 234.0, "srh01": 207.0, "maxllaz": 0.002}}, {"type": "Feature", "geometry": {"type": "Point", "coordinates": [-94.0935, 41.7176]}, "properties": {"storm_id": "235984", "probability": 0.149, "risk_band": "low", "mucape": 138.0, "srh01": 203.0, "maxllaz": 0.003}}, {"type": "Feature", "geometry": {"type": "Point", "coordinates": [-93.1392, 42.0277]}, "properties": {"storm_id": "235785", "probability": 0.1446, "risk_band": "low", "mucape": 63.0, "srh01": 196.0, "maxllaz": 0.002}}, {"type": "Feature", "geometry": {"type": "Point", "coordinates": [-93.8622, 42.1356]}, "properties": {"storm_id": "236022", "probability": 0.1446, "risk_band": "low", "mucape": 40.0, "srh01": 196.0, "maxllaz": 0.002}}, {"type": "Feature", "geometry": {"type": "Point", "coordinates": [-123.6618, 43.3745]}, "properties": {"storm_id": "235272", "probability": 0.135, "risk_band": "low", "mucape": 896.0, "srh01": 42.0, "maxllaz": 0.005}}, {"type": "Feature", "geometry": {"type": "Point", "coordinates": [-102.3536, 35.3214]}, "properties": {"storm_id": "235571", "probability": 0.135, "risk_band": "low", "mucape": 683.0, "srh01": 9.0, "maxllaz": 0.005}}, {"type": "Feature", "geometry": {"type": "Point", "coordinates": [-97.49, 30.141]}, "properties": {"storm_id": "235632", "probability": 0.135, "risk_band": "low", "mucape": 1447.0, "srh01": 16.0, "maxllaz": 0.005}}, {"type": "Feature", "geometry": {"type": "Point", "coordinates": [-98.1628, 29.8959]}, "properties": {"storm_id": "235855", "probability": 0.135, "risk_band": "low", "mucape": 1596.0, "srh01": 27.0, "maxllaz": 0.005}}, {"type": "Feature", "geometry": {"type": "Point", "coordinates": [-122.7111, 42.7733]}, "properties": {"storm_id": "235888", "probability": 0.135, "risk_band": "low", "mucape": 493.0, "srh01": 20.0, "maxllaz": 0.005}}, {"type": "Feature", "geometry": {"type": "Point", "coordinates": [-98.9535, 38.4518]}, "properties": {"storm_id": "235945", "probability": 0.135, "risk_band": "low", "mucape": 1332.0, "srh01": 37.0, "maxllaz": 0.005}}, {"type": "Feature", "geometry": {"type": "Point", "coordinates": [-123.264, 40.5655]}, "properties": {"storm_id": "235997", "probability": 0.135, "risk_band": "low", "mucape": 520.0, "srh01": 46.0, "maxllaz": 0.005}}, {"type": "Feature", "geometry": {"type": "Point", "coordinates": [-123.0689, 43.16]}, "properties": {"storm_id": "236005", "probability": 0.135, "risk_band": "low", "mucape": 549.0, "srh01": 24.0, "maxllaz": 0.005}}, {"type": "Feature", "geometry": {"type": "Point", "coordinates": [-92.62, 41.49]}, "properties": {"storm_id": "236024", "probability": 0.135, "risk_band": "low", "mucape": 73.0, "srh01": 180.0, "maxllaz": 0.0}}, {"type": "Feature", "geometry": {"type": "Point", "coordinates": [-92.4283, 41.5783]}, "properties": {"storm_id": "235953", "probability": 0.131, "risk_band": "low", "mucape": 140.0, "srh01": 173.0, "maxllaz": 0.003}}, {"type": "Feature", "geometry": {"type": "Point", "coordinates": [-94.1175, 42.4283]}, "properties": {"storm_id": "235995", "probability": 0.1276, "risk_band": "low", "mucape": 105.0, "srh01": 167.0, "maxllaz": 0.002}}, {"type": "Feature", "geometry": {"type": "Point", "coordinates": [-92.2089, 41.6356]}, "properties": {"storm_id": "236023", "probability": 0.1195, "risk_band": "low", "mucape": 334.0, "srh01": 152.0, "maxllaz": 0.001}}, {"type": "Feature", "geometry": {"type": "Point", "coordinates": [-80.163, 24.9075]}, "properties": {"storm_id": "235015", "probability": 0.1133, "risk_band": "low", "mucape": 1977.0, "srh01": 78.0, "maxllaz": 0.004}}, {"type": "Feature", "geometry": {"type": "Point", "coordinates": [-90.6329, 41.9671]}, "properties": {"storm_id": "235194", "probability": 0.1133, "risk_band": "low", "mucape": 6.0, "srh01": 82.0, "maxllaz": 0.004}}, {"type": "Feature", "geometry": {"type": "Point", "coordinates": [-122.7367, 40.4933]}, "properties": {"storm_id": "235576", "probability": 0.1133, "risk_band": "low", "mucape": 630.0, "srh01": 50.0, "maxllaz": 0.004}}, {"type": "Feature", "geometry": {"type": "Point", "coordinates": [-123.281, 43.209]}, "properties": {"storm_id": "235669", "probability": 0.1133, "risk_band": "low", "mucape": 364.0, "srh01": 14.0, "maxllaz": 0.004}}, {"type": "Feature", "geometry": {"type": "Point", "coordinates": [-97.1572, 29.8456]}, "properties": {"storm_id": "235873", "probability": 0.1133, "risk_band": "low", "mucape": 2110.0, "srh01": 2.0, "maxllaz": 0.004}}, {"type": "Feature", "geometry": {"type": "Point", "coordinates": [-97.3665, 27.7842]}, "properties": {"storm_id": "235930", "probability": 0.1133, "risk_band": "low", "mucape": 1875.0, "srh01": 11.0, "maxllaz": 0.004}}, {"type": "Feature", "geometry": {"type": "Point", "coordinates": [-99.37, 38.2267]}, "properties": {"storm_id": "235946", "probability": 0.1133, "risk_band": "low", "mucape": 1092.0, "srh01": 31.0, "maxllaz": 0.004}}, {"type": "Feature", "geometry": {"type": "Point", "coordinates": [-122.6389, 42.0489]}, "properties": {"storm_id": "235961", "probability": 0.1133, "risk_band": "low", "mucape": 523.0, "srh01": 48.0, "maxllaz": 0.004}}, {"type": "Feature", "geometry": {"type": "Point", "coordinates": [-122.5167, 42.5711]}, "properties": {"storm_id": "236006", "probability": 0.1133, "risk_band": "low", "mucape": 849.0, "srh01": 32.0, "maxllaz": 0.004}}, {"type": "Feature", "geometry": {"type": "Point", "coordinates": [-122.5712, 41.7625]}, "properties": {"storm_id": "236015", "probability": 0.1133, "risk_band": "low", "mucape": 610.0, "srh01": 51.0, "maxllaz": 0.004}}, {"type": "Feature", "geometry": {"type": "Point", "coordinates": [-97.2344, 39.605]}, "properties": {"storm_id": "236009", "probability": 0.1113, "risk_band": "low", "mucape": 1461.0, "srh01": 136.0, "maxllaz": 0.003}}, {"type": "Feature", "geometry": {"type": "Point", "coordinates": [-100.4178, 25.2911]}, "properties": {"storm_id": "235683", "probability": 0.1089, "risk_band": "low", "mucape": 1292.0, "srh01": 127.0, "maxllaz": 0.0}}, {"type": "Feature", "geometry": {"type": "Point", "coordinates": [-94.12, 42.7183]}, "properties": {"storm_id": "235972", "probability": 0.1018, "risk_band": "low", "mucape": 94.0, "srh01": 116.0, "maxllaz": 0.001}}, {"type": "Feature", "geometry": {"type": "Point", "coordinates": [-92.1683, 41.945]}, "properties": {"storm_id": "235862", "probability": 0.0986, "risk_band": "low", "mucape": 569.0, "srh01": 109.0, "maxllaz": 0.002}}, {"type": "Feature", "geometry": {"type": "Point", "coordinates": [-99.987, 24.892]}, "properties": {"storm_id": "235859", "probability": 0.0965, "risk_band": "low", "mucape": 1148.0, "srh01": 47.0, "maxllaz": 0.003}}, {"type": "Feature", "geometry": {"type": "Point", "coordinates": [-98.2378, 29.1244]}, "properties": {"storm_id": "235856", "probability": 0.0958, "risk_band": "low", "mucape": 1052.0, "srh01": 4.0, "maxllaz": 0.002}}, {"type": "Feature", "geometry": {"type": "Point", "coordinates": [-99.6127, 28.008]}, "properties": {"storm_id": "235978", "probability": 0.0957, "risk_band": "low", "mucape": 1081.0, "srh01": 17.0, "maxllaz": 0.002}}, {"type": "Feature", "geometry": {"type": "Point", "coordinates": [-99.347, 25.692]}, "properties": {"storm_id": "235979", "probability": 0.0957, "risk_band": "low", "mucape": 1689.0, "srh01": 42.0, "maxllaz": 0.003}}, {"type": "Feature", "geometry": {"type": "Point", "coordinates": [-97.7707, 27.4429]}, "properties": {"storm_id": "235712", "probability": 0.0954, "risk_band": "low", "mucape": 1573.0, "srh01": 12.0, "maxllaz": 0.003}}, {"type": "Feature", "geometry": {"type": "Point", "coordinates": [-96.4342, 29.3837]}, "properties": {"storm_id": "235168", "probability": 0.0947, "risk_band": "low", "mucape": 1819.0, "srh01": 6.0, "maxllaz": 0.003}}, {"type": "Feature", "geometry": {"type": "Point", "coordinates": [-98.1, 30.8192]}, "properties": {"storm_id": "235563", "probability": 0.0947, "risk_band": "low", "mucape": 1431.0, "srh01": 6.0, "maxllaz": 0.003}}, {"type": "Feature", "geometry": {"type": "Point", "coordinates": [-96.3544, 30.0556]}, "properties": {"storm_id": "235627", "probability": 0.0947, "risk_band": "low", "mucape": 811.0, "srh01": 0.0, "maxllaz": 0.002}}, {"type": "Feature", "geometry": {"type": "Point", "coordinates": [-98.9222, 26.1917]}, "properties": {"storm_id": "235660", "probability": 0.0947, "risk_band": "low", "mucape": 1384.0, "srh01": 27.0, "maxllaz": 0.003}}, {"type": "Feature", "geometry": {"type": "Point", "coordinates": [-122.772, 40.003]}, "properties": {"storm_id": "235706", "probability": 0.0947, "risk_band": "low", "mucape": 640.0, "srh01": 69.0, "maxllaz": 0.003}}, {"type": "Feature", "geometry": {"type": "Point", "coordinates": [-104.7822, 34.0867]}, "properties": {"storm_id": "235730", "probability": 0.0947, "risk_band": "low", "mucape": 169.0, "srh01": 13.0, "maxllaz": 0.002}}, {"type": "Feature", "geometry": {"type": "Point", "coordinates": [-102.92, 30.5675]}, "properties": {"storm_id": "235733", "probability": 0.0947, "risk_band": "low", "mucape": 822.0, "srh01": 36.0, "maxllaz": 0.002}}, {"type": "Feature", "geometry": {"type": "Point", "coordinates": [-93.525, 30.373]}, "properties": {"storm_id": "235734", "probability": 0.0947, "risk_band": "low", "mucape": 1247.0, "srh01": 0.0, "maxllaz": 0.003}}, {"type": "Feature", "geometry": {"type": "Point", "coordinates": [-102.6246, 29.3085]}, "properties": {"storm_id": "235776", "probability": 0.0947, "risk_band": "low", "mucape": 1652.0, "srh01": 18.0, "maxllaz": 0.001}}, {"type": "Feature", "geometry": {"type": "Point", "coordinates": [-100.6057, 28.7753]}, "properties": {"storm_id": "235813", "probability": 0.0947, "risk_band": "low", "mucape": 2009.0, "srh01": 0.0, "maxllaz": 0.002}}, {"type": "Feature", "geometry": {"type": "Point", "coordinates": [-102.3467, 28.9489]}, "properties": {"storm_id": "235824", "probability": 0.0947, "risk_band": "low", "mucape": 1667.0, "srh01": 37.0, "maxllaz": 0.003}}, {"type": "Feature", "geometry": {"type": "Point", "coordinates": [-100.275, 37.208]}, "properties": {"storm_id": "235867", "probability": 0.0947, "risk_band": "low", "mucape": 1004.0, "srh01": 25.0, "maxllaz": 0.003}}, {"type": "Feature", "geometry": {"type": "Point", "coordinates": [-97.35, 29.3933]}, "properties": {"storm_id": "235882", "probability": 0.0947, "risk_band": "low", "mucape": 1798.0, "srh01": 13.0, "maxllaz": 0.002}}, {"type": "Feature", "geometry": {"type": "Point", "coordinates": [-102.7425, 29.1513]}, "properties": {"storm_id": "235898", "probability": 0.0947, "risk_band": "low", "mucape": 1299.0, "srh01": 21.0, "maxllaz": 0.001}}, {"type": "Feature", "geometry": {"type": "Point", "coordinates": [-100.6044, 37.1856]}, "properties": {"storm_id": "235906", "probability": 0.0947, "risk_band": "low", "mucape": 950.0, "srh01": 22.0, "maxllaz": 0.002}}, {"type": "Feature", "geometry": {"type": "Point", "coordinates": [-99.2736, 26.0636]}, "properties": {"storm_id": "235909", "probability": 0.0947, "risk_band": "low", "mucape": 1379.0, "srh01": 79.0, "maxllaz": 0.002}}, {"type": "Feature", "geometry": {"type": "Point", "coordinates": [-100.6136, 24.8873]}, "properties": {"storm_id": "235911", "probability": 0.0947, "risk_band": "low", "mucape": 1085.0, "srh01": 33.0, "maxllaz": 0.0}}, {"type": "Feature", "geometry": {"type": "Point", "coordinates": [-97.1617, 28.9283]}, "properties": {"storm_id": "235929", "probability": 0.0947, "risk_band": "low", "mucape": 1727.0, "srh01": 3.0, "maxllaz": 0.001}}, {"type": "Feature", "geometry": {"type": "Point", "coordinates": [-79.2864, 24.795]}, "properties": {"storm_id": "235932", "probability": 0.0947, "risk_band": "low", "mucape": 2431.0, "srh01": 45.0, "maxllaz": 0.002}}, {"type": "Feature", "geometry": {"type": "Point", "coordinates": [-100.8883, 25.0717]}, "properties": {"storm_id": "235942", "probability": 0.0947, "risk_band": "low", "mucape": 1083.0, "srh01": 42.0, "maxllaz": 0.0}}, {"type": "Feature", "geometry": {"type": "Point", "coordinates": [-103.2873, 33.8064]}, "properties": {"storm_id": "235958", "probability": 0.0947, "risk_band": "low", "mucape": 439.0, "srh01": 7.0, "maxllaz": 0.003}}, {"type": "Feature", "geometry": {"type": "Point", "coordinates": [-78.642, 24.594]}, "properties": {"storm_id": "235971", "probability": 0.0947, "risk_band": "low", "mucape": 1726.0, "srh01": 23.0, "maxllaz": 0.001}}, {"type": "Feature", "geometry": {"type": "Point", "coordinates": [-122.6691, 42.45]}, "properties": {"storm_id": "235981", "probability": 0.0947, "risk_band": "low", "mucape": 916.0, "srh01": 40.0, "maxllaz": 0.002}}, {"type": "Feature", "geometry": {"type": "Point", "coordinates": [-103.107, 33.867]}, "properties": {"storm_id": "235988", "probability": 0.0947, "risk_band": "low", "mucape": 496.0, "srh01": 8.0, "maxllaz": 0.002}}, {"type": "Feature", "geometry": {"type": "Point", "coordinates": [-103.1, 30.51]}, "properties": {"storm_id": "235989", "probability": 0.0947, "risk_band": "low", "mucape": 586.0, "srh01": 33.0, "maxllaz": 0.001}}, {"type": "Feature", "geometry": {"type": "Point", "coordinates": [-103.2993, 29.1967]}, "properties": {"storm_id": "235991", "probability": 0.0947, "risk_band": "low", "mucape": 991.0, "srh01": 32.0, "maxllaz": 0.001}}, {"type": "Feature", "geometry": {"type": "Point", "coordinates": [-103.1, 27.6825]}, "properties": {"storm_id": "235992", "probability": 0.0947, "risk_band": "low", "mucape": 1268.0, "srh01": 44.0, "maxllaz": 0.0}}, {"type": "Feature", "geometry": {"type": "Point", "coordinates": [-93.39, 42.7418]}, "properties": {"storm_id": "235994", "probability": 0.0947, "risk_band": "low", "mucape": 10.0, "srh01": 82.0, "maxllaz": 0.001}}, {"type": "Feature", "geometry": {"type": "Point", "coordinates": [-96.7247, 30.168]}, "properties": {"storm_id": "235998", "probability": 0.0947, "risk_band": "low", "mucape": 1440.0, "srh01": 2.0, "maxllaz": 0.002}}, {"type": "Feature", "geometry": {"type": "Point", "coordinates": [-97.6143, 28.3829]}, "properties": {"storm_id": "236000", "probability": 0.0947, "risk_band": "low", "mucape": 1344.0, "srh01": 0.0, "maxllaz": 0.002}}, {"type": "Feature", "geometry": {"type": "Point", "coordinates": [-97.1318, 27.6109]}, "properties": {"storm_id": "236001", "probability": 0.0947, "risk_band": "low", "mucape": 2056.0, "srh01": 30.0, "maxllaz": 0.003}}, {"type": "Feature", "geometry": {"type": "Point", "coordinates": [-99.045, 25.872]}, "properties": {"storm_id": "236002", "probability": 0.0947, "risk_band": "low", "mucape": 1373.0, "srh01": 36.0, "maxllaz": 0.003}}, {"type": "Feature", "geometry": {"type": "Point", "coordinates": [-123.0844, 43.32]}, "properties": {"storm_id": "236004", "probability": 0.0947, "risk_band": "low", "mucape": 476.0, "srh01": 20.0, "maxllaz": 0.002}}, {"type": "Feature", "geometry": {"type": "Point", "coordinates": [-91.765, 28.165]}, "properties": {"storm_id": "236011", "probability": 0.0947, "risk_band": "low", "mucape": 1239.0, "srh01": 44.0, "maxllaz": 0.002}}, {"type": "Feature", "geometry": {"type": "Point", "coordinates": [-121.832, 48.787]}, "properties": {"storm_id": "236012", "probability": 0.0947, "risk_band": "low", "mucape": 0.0, "srh01": 15.0, "maxllaz": 0.001}}, {"type": "Feature", "geometry": {"type": "Point", "coordinates": [-79.18, 41.97]}, "properties": {"storm_id": "236014", "probability": 0.0947, "risk_band": "low", "mucape": 262.0, "srh01": 84.0, "maxllaz": 0.003}}, {"type": "Feature", "geometry": {"type": "Point", "coordinates": [-102.1711, 35.3444]}, "properties": {"storm_id": "236016", "probability": 0.0947, "risk_band": "low", "mucape": 676.0, "srh01": 10.0, "maxllaz": 0.003}}, {"type": "Feature", "geometry": {"type": "Point", "coordinates": [-81.5424, 24.9435]}, "properties": {"storm_id": "236019", "probability": 0.0947, "risk_band": "low", "mucape": 1910.0, "srh01": 0.0, "maxllaz": 0.002}}, {"type": "Feature", "geometry": {"type": "Point", "coordinates": [-93.3367, 42.8758]}, "properties": {"storm_id": "236020", "probability": 0.0947, "risk_band": "low", "mucape": 7.0, "srh01": 59.0, "maxllaz": 0.002}}, {"type": "Feature", "geometry": {"type": "Point", "coordinates": [-93.1714, 42.73]}, "properties": {"storm_id": "236021", "probability": 0.0947, "risk_band": "low", "mucape": 26.0, "srh01": 64.0, "maxllaz": 0.001}}, {"type": "Feature", "geometry": {"type": "Point", "coordinates": [-81.2611, 41.0867]}, "properties": {"storm_id": "236025", "probability": 0.0947, "risk_band": "low", "mucape": 498.0, "srh01": 61.0, "maxllaz": 0.002}}, {"type": "Feature", "geometry": {"type": "Point", "coordinates": [-122.6255, 40.9936]}, "properties": {"storm_id": "236026", "probability": 0.0947, "risk_band": "low", "mucape": 511.0, "srh01": 56.0, "maxllaz": 0.002}}, {"type": "Feature", "geometry": {"type": "Point", "coordinates": [-99.4048, 31.2529]}, "properties": {"storm_id": "236027", "probability": 0.0947, "risk_band": "low", "mucape": 1307.0, "srh01": 14.0, "maxllaz": 0.002}}, {"type": "Feature", "geometry": {"type": "Point", "coordinates": [-97.96, 30.4112]}, "properties": {"storm_id": "236028", "probability": 0.0947, "risk_band": "low", "mucape": 1555.0, "srh01": 12.0, "maxllaz": 0.002}}, {"type": "Feature", "geometry": {"type": "Point", "coordinates": [-80.7707, 30.3414]}, "properties": {"storm_id": "236029", "probability": 0.0947, "risk_band": "low", "mucape": 458.0, "srh01": 15.0, "maxllaz": 0.002}}, {"type": "Feature", "geometry": {"type": "Point", "coordinates": [-97.5944, 27.4856]}, "properties": {"storm_id": "236030", "probability": 0.0947, "risk_band": "low", "mucape": 1701.0, "srh01": 8.0, "maxllaz": 0.001}}, {"type": "Feature", "geometry": {"type": "Point", "coordinates": [-99.1388, 25.9825]}, "properties": {"storm_id": "236031", "probability": 0.0947, "risk_band": "low", "mucape": 1532.0, "srh01": 50.0, "maxllaz": 0.003}}]}